1 21232U 91030A   99054.91849637  .00000050  00000-0  10000-3 0  1785
2 21232  82.5369  38.7069 0012049 230.0597 129.9471 13.16487731376718
1 21232U 91030A   99054.99449557  .00000050  00000-0  10000-3 0  1331
2 21232  82.5370  38.6531 0012092 230.2264 129.7797 13.16487796376725
1 21232U 91030A   99055.45049390  .00000050  00000-0  10000-3 0  1378
2 21232  82.5372  38.3306 0012093 228.3363 131.6728 13.16487882376781
1 21232U 91030A   99055.90649195  .00000050  00000-0  10000-3 0  1401
2 21232  82.5373  38.0081 0012146 227.5202 132.4900 13.16487984376842
1 21232U 91030A   99056.05849122  .00000050  00000-0  10000-3 0  1422
2 21232  82.5373  37.9006 0012147 227.3146 132.6954 13.16488017376864
1 21232U 91030A   99056.43848965  .00000050  00000-0  10000-3 0  1484
2 21232  82.5375  37.6320 0012118 225.5445 134.4692 13.16488130376913
1 21232U 91030A   99056.89448797  .00000050  00000-0  10000-3 0  1517
2 21232  82.5376  37.3094 0012156 224.6046 135.4111 13.16488210376970
1 21232U 91030A   99057.04648696  .00000050  00000-0  10000-3 0  1560
2 21232  82.5377  37.2020 0012180 224.3574 135.6573 13.16488247376995
1 21232U 91030A   99057.42648539  .00000050  00000-0  10000-3 0  1647
2 21232  82.5380  36.9339 0012149 222.6712 137.3470 13.16488345377049
1 21232U 91030A   99057.88248373  .00000050  00000-0  10000-3 0  1683
2 21232  82.5380  36.6112 0012199 221.4647 138.5553 13.16488398377104
1 21232U 91030A   99057.95848343  .00000050  00000-0  10000-3 0  1695
2 21232  82.5380  36.5574 0012205 221.1987 138.8213 13.16488397377113
1 21232U 91030A   99058.41448205  .00000050  00000-0  10000-3 0  1757
2 21232  82.5381  36.2351 0012190 220.1564 139.8658 13.16488431377176
1 21232U 91030A   99058.87048070  .00000050  00000-0  10000-3 0  1786
2 21232  82.5381  35.9125 0012220 218.7864 141.2382 13.16488452377232
1 21232U 91030A   99059.02248057  .00000050  00000-0  10000-3 0  1848
2 21232  82.5380  35.8051 0012292 217.6997 142.3262 13.16488401377257
1 21232U 91030A   99059.47847956  .00000050  00000-0  10000-3 0  1402
2 21232  82.5381  35.4830 0012260 217.3487 142.6783 13.16488379377317
1 21232U 91030A   99059.85847856  .00000050  00000-0  10000-3 0  1436
2 21232  82.5381  35.2142 0012276 216.1883 143.8409 13.16488386377366
1 21232U 91030A   99060.01047873  .00000050  00000-0  10000-3 0  1482
2 21232  82.5379  35.1065 0012312 215.0844 144.9465 13.16488318377383
1 21232U 91030A   99060.46647792  .00000050  00000-0  10000-3 0  1555
2 21232  82.5380  34.7845 0012305 214.8315 145.2001 13.16488265377446
1 21232U 91030A   99061.45447656  .00000050  00000-0  10000-3 0  1619
2 21232  82.5361  34.0815 0012362 213.7449 146.2885 13.16488123377572
1 21232U 91030A   99062.44247433  .00000050  00000-0  10000-3 0  1687
2 21232  82.5362  33.3831 0012327 211.8478 148.1898 13.16488110377701
1 21232U 91030A   99062.89847309  .00000050  00000-0  10000-3 0  1695
2 21232  82.5361  33.0604 0012365 210.0839 149.9548 13.16488084377766
1 21232U 91030A   99063.43047218  .00000050  00000-0  10000-3 0  1338
2 21232  82.5363  32.6846 0012393 208.6439 151.4002 13.16488109377830
1 21232U 91030A   99063.43047218  .00000050  00000-0  10000-3 0  1754
2 21232  82.5363  32.6846 0012393 208.6439 151.4002 13.16488109377830
1 21232U 91030A   99063.88647095  .00000050  00000-0  10000-3 0  1347
2 21232  82.5363  32.3618 0012431 207.0320 153.0136 13.16488099377899
1 21232U 91030A   99064.41846976  .00000050  00000-0  10000-3 0  1391
2 21232  82.5364  31.9858 0012455 205.5313 154.5196 13.16488158377968
1 21232U 91030A   99064.87446844  .00000050  00000-0  10000-3 0  1436
2 21232  82.5365  31.6633 0012464 204.3222 155.7309 13.16488184378029
1 21232U 91030A   99064.95046832  .00000050  00000-0  10000-3 0  1449
2 21232  82.5365  31.6095 0012479 204.0049 156.0487 13.16488178378036
1 21232U 91030A   99065.40646674  .00000050  00000-0  10000-3 0  1495
2 21232  82.5367  31.2874 0012562 202.2245 157.8337 13.16488269378090
1 21232U 91030A   99065.86246505  .00000050  00000-0  10000-3 0  1539
2 21232  82.5367  30.9645 0012585 201.3333 158.7270 13.16488342378150
1 21232U 91030A   99065.93846476  .00000050  00000-0  10000-3 0  1541
2 21232  82.5367  30.9108 0012597 201.1180 158.9424 13.16488345378162
1 21232U 91030A   99066.39446308  .00000050  00000-0  10000-3 0  1586
2 21232  82.5369  30.5884 0012708 199.2469 160.8177 13.16488432378223
1 21232U 91030A   99066.85046139  .00000050  00000-0  10000-3 0  1620
2 21232  82.5369  30.2656 0012706 198.3520 161.7146 13.16488499378288
1 21232U 91030A   99066.92646117  .00000050  00000-0  10000-3 0  1642
2 21232  82.5370  30.2122 0012757 198.0788 161.9886 13.16488498378290
1 21232U 91030A   99067.38245935  .00000050  00000-0  10000-3 0  1714
2 21232  82.5374  29.8906 0012838 196.2183 163.8533 13.16488591378358
1 21232U 91030A   99067.91445754  .00000050  00000-0  10000-3 0  1343
2 21232  82.5375  29.5145 0012860 194.9184 165.1557 13.16488632378427
1 21232U 91030A   99067.91445755  .00000050  00000-0  10000-3 0  1771
2 21232  82.5375  29.5144 0012837 195.0146 165.0598 13.16488644378427
1 21232U 91030A   99067.99045739  .00000050  00000-0  10000-3 0  1351
2 21232  82.5375  29.4607 0012895 194.6559 165.4191 13.16488633378439
1 21232U 91030A   99068.37045623  .00000050  00000-0  10000-3 0  1402
2 21232  82.5377  29.1927 0012880 193.6720 166.4055 13.16488663378484
1 21232U 91030A   99068.82645485  .00000050  00000-0  10000-3 0  1415
2 21232  82.5377  28.8701 0012905 192.4760 167.6043 13.16488693378549
1 21232U 91030A   99068.97845496  .00000050  00000-0  10000-3 0  1460
2 21232  82.5377  28.7628 0013067 191.4605 168.6219 13.16488625378566
1 21232U 91030A   99069.43445367  .00000050  00000-0  10000-3 0  1544
2 21232  82.5379  28.4408 0013025 190.4217 169.6636 13.16488656378628
1 21232U 91030A   99069.89045307  .00000051  00000-0  10000-3 0  1602
2 21232  82.5378  28.1185 0013113 188.4537 171.6346 13.16488574378682
1 21232U 91030A   99069.96645326  .00000051  00000-0  10000-3 0  1618
2 21232  82.5378  28.0647 0013128 188.2033 171.8873 13.16488572378695
1 21232U 91030A   99070.42245240  .00000051  00000-0  10000-3 0  1690
2 21232  82.5379  27.7427 0013003 187.7752 172.3169 13.16488535378752
1 21232U 91030A   99070.87845192  .00000051  00000-0  10000-3 0  1769
2 21232  82.5377  27.4201 0013131 185.7227 174.3726 13.16488439378815
1 21232U 91030A   99070.95445216  .00000051  00000-0  10000-3 0  1772
2 21232  82.5377  27.3664 0013151 185.4534 174.6442 13.16488433378820
1 21232U 91030A   99071.41045147  .00000051  00000-0  10000-3 0  1841
2 21232  82.5377  27.0442 0013016 185.1392 174.9597 13.16488374378884
1 21232U 91030A   99071.94245173  .00000051  00000-0  10000-3 0  1356
2 21232  82.5375  26.6681 0013157 182.6367 177.4683 13.16488226378950
1 21232U 91030A   99072.93045013  .00000051  00000-0  10000-3 0  1481
2 21232  82.5374  25.9695 0013134 180.4551 179.6557 13.16488159379086
1 21232U 91030A   99073.38644935  .00000051  00000-0  10000-3 0  1546
2 21232  82.5376  25.6477 0013037 179.7348 180.3782 13.16488136379141
1 21232U 91030A   99073.91844806  .00000051  00000-0  10000-3 0  1566
2 21232  82.5376  25.2713 0013091 178.3068 181.8097 13.16488158379211
1 21232U 91030A   99074.37444690  .00000051  00000-0  10000-3 0  1610
2 21232  82.5378  24.9492 0013092 177.1186 183.0014 13.16488199379276
1 21232U 91030A   99074.90644541  .00000051  00000-0  10000-3 0  1638
2 21232  82.5378  24.5729 0013100 175.8730 184.2504 13.16488252379340
1 21232U 91030A   99075.36244382  .00000051  00000-0  10000-3 0  1672
2 21232  82.5380  24.2507 0013222 174.3846 185.7429 13.16488342379400
1 21232U 91030A   99075.89444208  .00000051  00000-0  10000-3 0  1691
2 21232  82.5381  23.8744 0013169 173.3257 186.8053 13.16488430379474
1 21232U 91030A   99076.35044005  .00000051  00000-0  10000-3 0  1368
2 21232  82.5384  23.5523 0013333 171.7369 188.3979 13.16488553379535
1 21232U 91030A   99076.88243817  .00000051  00000-0  10000-3 0  1380
2 21232  82.5385  23.1761 0013211 170.9686 189.1711 13.16488693379600
1 21232U 91030A   99077.33843559  .00000051  00000-0  10000-3 0  1436
2 21232  82.5388  22.8540 0013377 169.4224 190.7186 13.16488807379665
1 21232U 91030A   99077.87043373  .00000051  00000-0  10000-3 0  1453
2 21232  82.5389  22.4777 0013340 168.3019 191.8426 13.16488884379736
1 21232U 91030A   99078.32643189  .00000051  00000-0  10000-3 0  1501
2 21232  82.5392  22.1560 0013366 167.0213 193.1257 13.16488948379791
1 21232U 91030A   99078.85843011  .00000051  00000-0  10000-3 0  1527
2 21232  82.5392  21.7797 0013404 165.7053 194.4447 13.16488983379860
1 21232U 91030A   99078.93442994  .00000051  00000-0  10000-3 0  1532
2 21232  82.5392  21.7259 0013437 165.5255 194.6254 13.16488983379870
1 21232U 91030A   99079.39042852  .00000051  00000-0  10000-3 0  1611
2 21232  82.5394  21.4040 0013382 164.3989 195.7547 13.16489011379934
1 21232U 91030A   99079.92242739  .00000051  00000-0  10000-3 0  1638
2 21232  82.5393  21.0276 0013515 162.7893 197.3687 13.16488986380007
1 21232U 91030A   99080.37842659  .00000051  00000-0  10000-3 0  1377
2 21232  82.5394  20.7059 0013378 161.9489 198.2109 13.16488926380061
1 21232U 91030A   99080.37842659  .00000051  00000-0  10000-3 0  1726
2 21232  82.5394  20.7059 0013378 161.9489 198.2109 13.16488926380061
1 21232U 91030A   99080.83442523  .00000051  00000-0  10000-3 0  1396
2 21232  82.5393  20.3832 0013581 160.4799 199.6810 13.16488876380124
1 21232U 91030A   99081.21442519  .00000051  00000-0  10000-3 0  1439
2 21232  82.5394  20.1153 0013600 159.6694 200.4971 13.16488836380175
1 21232U 91030A   99081.36642524  .00000051  00000-0  10000-3 0  1488
2 21232  82.5394  20.0081 0013474 159.5239 200.6424 13.16488769380199
1 21232U 91030A   99081.89842511  .00000051  00000-0  10000-3 0  1541
2 21232  82.5393  19.6321 0013642 157.4051 202.7668 13.16488669380265
